OBJECT_NAME,OBJECT_ID,EPOCH,MEAN_MOTION,ECCENTRICITY,INCLINATION,RA_OF_ASC_NODE,ARG_OF_PERICENTER,MEAN_ANOMALY,EPHEMERIS_TYPE,CLASSIFICATION_TYPE,NORAD_CAT_ID,ELEMENT_SET_NO,REV_AT_EPOCH,BSTAR,MEAN_MOTION_DOT,MEAN_MOTION_DDOT
SL-14 R/B,1990-010B,2026-06-05T20:05:52.919520,14.83639136,.00201175,82.5019,184.6039,13.9579,346.2188,0,U,20466,999,94155,.44209645E-4,.39E-5,0
SL-14 R/B,1990-018B,2026-06-05T16:04:45.879744,14.82208520,.00167753,82.5202,140.8726,157.3822,202.8136,0,U,20511,999,93561,.47808884E-4,.406E-5,0
HST,1990-037B,2026-06-05T08:12:51.453216,15.30618516,.00018461,28.4714,161.5212,24.4267,335.6416,0,U,20580,999,78675,.16530003E-3,.5266E-4,0
SL-16 R/B,1990-046B,2026-06-05T15:18:04.677696,14.15019866,.00141795,70.9977,113.2042,179.3303,180.7841,0,U,20625,999,86083,.13348384E-3,.211E-5,0
SL-8 R/B,1990-078B,2026-06-05T11:01:38.406720,14.91883190,.03531841,82.9014,172.2366,77.9086,286.1469,0,U,20775,999,82237,.49268365E-3,.17486E-3,0
OKEAN-3,1991-039A,2026-06-05T12:08:14.529408,15.05275848,.0014712,82.5169,251.7086,37.6890,322.5365,0,U,21397,999,87824,.1732126E-3,.2509E-4,0
SL-14 R/B,1991-042B,2026-06-05T16:10:42.173472,14.81894929,.00158563,82.4918,137.6921,316.0792,43.9161,0,U,21423,999,86610,.50375084E-4,.422E-5,0
ARIANE 40 R/B,1991-050F,2026-06-05T09:35:10.717440,14.42949895,.00036999,98.1880,205.2747,147.6027,212.5392,0,U,21610,999,83164,.1056896E-3,.312E-5,0
INTERCOSMOS 25,1991-086A,2026-06-05T13:22:09.241824,12.12181566,.14844756,82.6055,256.8474,287.5043,56.9522,0,U,21819,999,50733,.16328168E-3,.821E-5,0
SL-8 R/B,1992-008B,2026-06-05T12:02:14.303616,13.75973742,.00332786,82.9270,202.4756,248.3903,224.1561,0,U,21876,999,72149,.23258767E-4,.38E-6,0
COSMOS 2219,1992-076A,2026-06-05T10:45:20.858976,14.14095701,.00160482,71.0581,194.6129,63.3408,296.9356,0,U,22219,999,73078,-.40558334E-4,-.124E-5,0
SL-16 R/B,1992-076B,2026-06-05T21:09:28.893888,14.16872621,.00143594,71.0010,2.5981,313.5294,139.9731,0,U,22220,999,73432,-.57971884E-4,-.164E-5,0
COSMOS 2221,1992-080A,2026-06-05T12:06:50.902848,14.96503646,.00126067,82.5037,194.9568,255.4528,104.5296,0,U,22236,999,79392,.13161311E-3,.1522E-4,0
SL-16 R/B,1992-093B,2026-06-05T12:16:18.365088,14.15464970,.0004582,71.0203,179.9023,203.9491,156.1420,0,U,22285,999,72558,.20744651E-4,-.7E-7,0
SL-16 R/B,1993-016B,2026-06-05T20:14:41.006688,14.15308518,.00109523,71.0081,30.0338,200.1426,159.9266,0,U,22566,999,71464,.10196136E-4,-.28E-6,0
COSMOS 2242,1993-024A,2026-06-05T11:34:52.882464,14.96868319,.00165171,82.5182,182.7407,16.0786,344.0957,0,U,22626,999,79352,.15300295E-3,.1785E-4,0
SL-16 R/B,1993-059B,2026-06-05T11:47:23.345088,14.17243439,.0014921,70.9885,185.9686,74.3810,285.8960,0,U,22803,999,69197,.29793186E-4,.12E-6,0
ARIANE 40 R/B,1993-061H,2026-06-05T11:22:54.941664,14.32902762,.00111991,98.4821,223.5742,30.6064,329.5771,0,U,22830,999,70667,.9542814E-4,.218E-5,0
COSMOS 2278,1994-023A,2026-06-05T20:39:10.711296,14.14391024,.00106513,71.0539,350.6248,255.9804,104.0135,0,U,23087,999,65727,.23050895E-3,.394E-5,0
SL-16 R/B,1994-023B,2026-06-05T22:30:45.983808,14.15018590,.00035015,70.9997,245.5555,199.3834,160.7156,0,U,23088,999,65857,.712304E-4,.9E-6,0
SL-16 R/B,1994-074B,2026-06-05T02:38:19.260096,14.79491724,.0005279,97.6995,183.3338,304.0059,123.0223,0,U,23343,999,70017,.67173E-4,.453E-5,0
